SAUDISAT 1C (SO-50)     
1 27607U 02058C   26196.00432816  .00000376  00000+0  62404-4 0  9990
2 27607  64.5518  42.9159 0074536 257.3021 101.9746 14.83098196268584
SAUDISAT 2              
1 28371U 04025F   26196.53488976  .00000098  00000+0  32916-4 0  9997
2 28371  98.5520 197.2509 0024085 207.1129 152.8812 14.56698381169875
SAUDISAT 3              
1 31118U 07012B   26196.41146241  .00000093  00000+0  23165-4 0  9993
2 31118  98.1467 146.8329 0015611 134.0727 226.1768 14.71440366 31891
PISAT                   
1 41784U 16059B   26196.54776680  .00000459  00000+0  85629-4 0  9993
2 41784  97.8191 195.7835 0030462 113.7528 246.6878 14.69030179523901
FLYING LAPTOP           
1 42831U 17042G   26196.57996853  .00002032  00000+0  16177-3 0  9999
2 42831  97.4803 351.0446 0019688  31.3072 328.9321 15.01314628490712
SALSAT                  
1 46495U 20068K   26196.46428795  .00004051  00000+0  14153-3 0  9999
2 46495  97.8855 201.2595 0009213 191.9024 168.1999 15.30174422319686
